ADRAS-J                 
1 58992U 24034A   24182.50543120  .00004753  00000+0  44117-3 0  9991
2 58992  98.2119 156.1286 0044066   7.4291 352.7571 14.94196519 19859
